[
    {
        "CCSDS_OMM_VERS": "3.0",
        "COMMENT": "GENERATED VIA SPACE-TRACK.ORG API",
        "CREATION_DATE": "2025-04-14T03:05:54",
        "ORIGINATOR": "18 SPCS",
        "OBJECT_NAME": "COSMOS 2544 (GLONASS)",
        "OBJECT_ID": "2019-088A",
        "CENTER_NAME": "EARTH",
        "REF_FRAME": "TEME",
        "TIME_SYSTEM": "UTC",
        "MEAN_ELEMENT_THEORY": "SGP4",
        "EPOCH": "2025-04-13T15:43:25.928544",
        "MEAN_MOTION": "2.13102078",
        "ECCENTRICITY": "0.00153600",
        "INCLINATION": "65.3326",
        "RA_OF_ASC_NODE": "88.0905",
        "ARG_OF_PERICENTER": "262.2569",
        "MEAN_ANOMALY": "97.5587",
        "EPHEMERIS_TYPE": "0",
        "CLASSIFICATION_TYPE": "U",
        "NORAD_CAT_ID": "44850",
        "ELEMENT_SET_NO": "999",
        "REV_AT_EPOCH": "4156",
        "BSTAR": "0.00000000000000",
        "MEAN_MOTION_DOT": "0.00000022",
        "MEAN_MOTION_DDOT": "0.0000000000000",
        "SEMIMAJOR_AXIS": "25508.018",
        "PERIOD": "675.733",
        "APOAPSIS": "19169.064",
        "PERIAPSIS": "19090.703",
        "OBJECT_TYPE": "PAYLOAD",
        "RCS_SIZE": "LARGE",
        "COUNTRY_CODE": "CIS",
        "LAUNCH_DATE": "2019-12-11",
        "SITE": "PKMTR",
        "DECAY_DATE": null,
        "FILE": "4701263",
        "GP_ID": "285539776",
        "TLE_LINE0": "0 COSMOS 2544 (GLONASS)",
        "TLE_LINE1": "1 44850U 19088A   25103.65516121  .00000022  00000-0  00000-0 0  9999",
        "TLE_LINE2": "2 44850  65.3326  88.0905 0015360 262.2569  97.5587  2.13102078 41566"
    }
]